start=new Date('2022-12-26T00:00:00.000Z').valueOf();
sats=[{"NORAD_CAT_ID":"45194","TLE_LINE2":"2 45194  53.0542 258.4555 0001445  87.4226 272.6929 15.06398544158401","REV_AT_EPOCH":"15840","ELEMENT_SET_NO":"999","DECAY_DATE":null,"SITE":"AFETR","OBJECT_ID":"2020-012S","PERIOD":"95.592","EPOCH":"2022-12-25T19:13:02.503488","FILE":"3722315","SEMIMAJOR_AXIS":"6925.353","LAUNCH_DATE":"2020-02-17","CENTER_NAME":"EARTH","OBJECT_TYPE":"PAYLOAD","OBJECT_NAME":"STARLINK-1240","APOAPSIS":"548.219","BSTAR":"-0.00010605000000","TIME_SYSTEM":"UTC","TLE_LINE1":"1 45194U 20012S   22359.80072342 -.00001861  00000-0 -10605-3 0  9998","ARG_OF_PERICENTER":"87.4226","MEAN_ANOMALY":"272.6929","EPHEMERIS_TYPE":"0","CLASSIFICATION_TYPE":"U","MEAN_MOTION_DOT":"-0.00001861","PERIAPSIS":"546.217","RCS_SIZE":"LARGE","INCLINATION":"53.0542","MEAN_MOTION":"15.06398544","GP_ID":"221448892","COUNTRY_CODE":"US","RA_OF_ASC_NODE":"258.4555","REF_FRAME":"TEME","MEAN_ELEMENT_THEORY":"SGP4","ECCENTRICITY":"0.00014450","MEAN_MOTION_DDOT":"0.0000000000000"},{"EPHEMERIS_TYPE":"0","MEAN_ANOMALY":"246.0013","ARG_OF_PERICENTER":"114.1380","BSTAR":"0.00124420000000","APOAPSIS":"509.848","TIME_SYSTEM":"UTC","TLE_LINE1":"1 45195U 20012T   22358.97018280  .00026555  00000-0  12442-2 0  9992","OBJECT_NAME":"STARLINK-1241","OBJECT_TYPE":"PAYLOAD","CENTER_NAME":"EARTH","SEMIMAJOR_AXIS":"6885.364","LAUNCH_DATE":"2020-02-17","FILE":"3722051","EPOCH":"2022-12-24T23:17:03.793920","ELEMENT_SET_NO":"999","SITE":"AFETR","DECAY_DATE":null,"PERIOD":"94.765","OBJECT_ID":"2020-012T","REV_AT_EPOCH":"15854","NORAD_CAT_ID":"45195","TLE_LINE2":"2 45195  53.0453 250.6621 0003803 114.1380 246.0013 15.19540900158543","MEAN_MOTION_DDOT":"0.0000000000000","ECCENTRICITY":"0.00038030","MEAN_ELEMENT_THEORY":"SGP4","REF_FRAME":"TEME","RA_OF_ASC_NODE":"250.6621","COUNTRY_CODE":"US","GP_ID":"221415582","MEAN_MOTION":"15.19540900","PERIAPSIS":"504.611","RCS_SIZE":"LARGE","INCLINATION":"53.0453","MEAN_MOTION_DOT":"0.00026555","CLASSIFICATION_TYPE":"U"},{"ECCENTRICITY":"0.00011540","MEAN_MOTION_DDOT":"0.0000000000000","MEAN_ELEMENT_THEORY":"SGP4","REF_FRAME":"TEME","RA_OF_ASC_NODE":"260.0368","COUNTRY_CODE":"US","GP_ID":"221416332","MEAN_MOTION":"15.06400429","INCLINATION":"53.0550","RCS_SIZE":"LARGE","PERIAPSIS":"546.413","MEAN_MOTION_DOT":"0.00001627","CLASSIFICATION_TYPE":"U","EPHEMERIS_TYPE":"0","MEAN_ANOMALY":"298.3779","ARG_OF_PERICENTER":"61.7326","TLE_LINE1":"1 45196U 20012U   22359.45055120  .00001627  00000-0  12812-3 0  9996","TIME_SYSTEM":"UTC","APOAPSIS":"548.011","BSTAR":"0.00012812000000","OBJECT_NAME":"STARLINK-1244","OBJECT_TYPE":"PAYLOAD","CENTER_NAME":"EARTH","LAUNCH_DATE":"2020-02-17","SEMIMAJOR_AXIS":"6925.347","FILE":"3722051","EPOCH":"2022-12-25T10:48:47.623680","DECAY_DATE":null,"SITE":"AFETR","PERIOD":"95.592","OBJECT_ID":"2020-012U","ELEMENT_SET_NO":"999","REV_AT_EPOCH":"15850","TLE_LINE2":"2 45196  53.0550 260.0368 0001154  61.7326 298.3779 15.06400429158501","NORAD_CAT_ID":"45196"},{"TIME_SYSTEM":"UTC","APOAPSIS":"548.457","BSTAR":"-0.00009109700000","TLE_LINE1":"1 45197U 20012V   22359.77123924 -.00001638  00000-0 -91097-4 0  9997","OBJECT_NAME":"STARLINK-1269","ARG_OF_PERICENTER":"82.3198","EPHEMERIS_TYPE":"0","MEAN_ANOMALY":"277.7989","REV_AT_EPOCH":"15847","NORAD_CAT_ID":"45197","TLE_LINE2":"2 45197  53.0543 258.5916 0001751  82.3198 277.7989 15.06389808158471","EPOCH":"2022-12-25T18:30:35.070336","ELEMENT_SET_NO":"999","SITE":"AFETR","DECAY_DATE":null,"PERIOD":"95.593","OBJECT_ID":"2020-012V","LAUNCH_DATE":"2020-02-17","SEMIMAJOR_AXIS":"6925.380","FILE":"3722315","OBJECT_TYPE":"PAYLOAD","CENTER_NAME":"EARTH","GP_ID":"221448142","RA_OF_ASC_NODE":"258.5916","COUNTRY_CODE":"US","REF_FRAME":"TEME","MEAN_MOTION_DDOT":"0.0000000000000","ECCENTRICITY":"0.00017510","MEAN_ELEMENT_THEORY":"SGP4","CLASSIFICATION_TYPE":"U","PERIAPSIS":"546.032","INCLINATION":"53.0543","RCS_SIZE":"LARGE","MEAN_MOTION_DOT":"-0.00001638","MEAN_MOTION":"15.06389808"},{"MEAN_ELEMENT_THEORY":"SGP4","MEAN_MOTION_DDOT":"0.0000000000000","ECCENTRICITY":"0.00015810","REF_FRAME":"TEME","COUNTRY_CODE":"US","RA_OF_ASC_NODE":"238.3433","GP_ID":"221449392","MEAN_MOTION":"15.06397913","MEAN_MOTION_DOT":"-0.00000221","INCLINATION":"53.0548","RCS_SIZE":"LARGE","PERIAPSIS":"546.125","CLASSIFICATION_TYPE":"U","MEAN_ANOMALY":"285.1149","EPHEMERIS_TYPE":"0","ARG_OF_PERICENTER":"75.0015","OBJECT_NAME":"STARLINK-1154","TLE_LINE1":"1 45198U 20012W   22359.82836337 -.00000221  00000-0  40912-5 0  9990","APOAPSIS":"548.315","BSTAR":"0.00000409120000","TIME_SYSTEM":"UTC","CENTER_NAME":"EARTH","OBJECT_TYPE":"PAYLOAD","FILE":"3722315","LAUNCH_DATE":"2020-02-17","SEMIMAJOR_AXIS":"6925.355","DECAY_DATE":null,"SITE":"AFETR","PERIOD":"95.592","OBJECT_ID":"2020-012W","ELEMENT_SET_NO":"999","EPOCH":"2022-12-25T19:52:50.595168","TLE_LINE2":"2 45198  53.0548 238.3433 0001581  75.0015 285.1149 15.06397913158731","NORAD_CAT_ID":"45198","REV_AT_EPOCH":"15873"},{"REF_FRAME":"TEME","MEAN_ELEMENT_THEORY":"SGP4","MEAN_MOTION_DDOT":"0.0000000000000","ECCENTRICITY":"0.00014610","GP_ID":"221449143","COUNTRY_CODE":"US","RA_OF_ASC_NODE":"238.3262","MEAN_MOTION":"15.06391306","CLASSIFICATION_TYPE":"U","MEAN_MOTION_DOT":"-0.00001496","RCS_SIZE":"LARGE","INCLINATION":"53.0544","PERIAPSIS":"546.228","MEAN_ANOMALY":"271.8368","EPHEMERIS_TYPE":"0","OBJECT_NAME":"STARLINK-1197","TLE_LINE1":"1 45199U 20012X   22359.83205735 -.00001496  00000-0 -81548-4 0  9999","APOAPSIS":"548.252","TIME_SYSTEM":"UTC","BSTAR":"-0.00008154800000","ARG_OF_PERICENTER":"88.2788","FILE":"3722315","LAUNCH_DATE":"2020-02-17","SEMIMAJOR_AXIS":"6925.375","CENTER_NAME":"EARTH","OBJECT_TYPE":"PAYLOAD","TLE_LINE2":"2 45199  53.0544 238.3262 0001461  88.2788 271.8368 15.06391306158799","NORAD_CAT_ID":"45199","REV_AT_EPOCH":"15879","SITE":"AFETR","DECAY_DATE":null,"OBJECT_ID":"2020-012X","PERIOD":"95.593","ELEMENT_SET_NO":"999","EPOCH":"2022-12-25T19:58:09.755040"},{"GP_ID":"221448392","RA_OF_ASC_NODE":"238.8823","COUNTRY_CODE":"US","REF_FRAME":"TEME","MEAN_MOTION_DDOT":"0.0000000000000","ECCENTRICITY":"0.00013490","MEAN_ELEMENT_THEORY":"SGP4","CLASSIFICATION_TYPE":"U","RCS_SIZE":"LARGE","INCLINATION":"53.0560","PERIAPSIS":"546.280","MEAN_MOTION_DOT":"-0.00000636","MEAN_MOTION":"15.06399840","TLE_LINE1":"1 45201U 20012Z   22359.70672752 -.00000636  00000-0 -23799-4 0  9995","APOAPSIS":"548.148","BSTAR":"-0.00002379900000","TIME_SYSTEM":"UTC","OBJECT_NAME":"STARLINK-1199","ARG_OF_PERICENTER":"82.3760","EPHEMERIS_TYPE":"0","MEAN_ANOMALY":"277.7382","REV_AT_EPOCH":"15877","TLE_LINE2":"2 45201  53.0560 238.8823 0001349  82.3760 277.7382 15.06399840158779","NORAD_CAT_ID":"45201","EPOCH":"2022-12-25T16:57:41.257728","DECAY_DATE":null,"OBJECT_ID":"2020-012Z","SITE":"AFETR","PERIOD":"95.592","ELEMENT_SET_NO":"999","SEMIMAJOR_AXIS":"6925.349","LAUNCH_DATE":"2020-02-17","FILE":"3722315","OBJECT_TYPE":"PAYLOAD","CENTER_NAME":"EARTH"},{"CLASSIFICATION_TYPE":"U","MEAN_MOTION_DOT":"0.00033665","PERIAPSIS":"477.815","INCLINATION":"52.9618","RCS_SIZE":"LARGE","MEAN_MOTION":"15.28098750","GP_ID":"221448642","COUNTRY_CODE":"US","RA_OF_ASC_NODE":"223.7363","REF_FRAME":"TEME","MEAN_ELEMENT_THEORY":"SGP4","MEAN_MOTION_DDOT":"0.0000000000000","ECCENTRICITY":"0.00053690","NORAD_CAT_ID":"45202","TLE_LINE2":"2 45202  52.9618 223.7363 0005369 131.2708 228.8753 15.28098750158966","REV_AT_EPOCH":"15896","ELEMENT_SET_NO":"999","SITE":"AFETR","DECAY_DATE":null,"PERIOD":"94.235","OBJECT_ID":"2020-012AA","EPOCH":"2022-12-25T21:54:09.216288","FILE":"3722315","SEMIMAJOR_AXIS":"6859.633","LAUNCH_DATE":"2020-02-17","CENTER_NAME":"EARTH","OBJECT_TYPE":"PAYLOAD","OBJECT_NAME":"STARLINK-1203","TIME_SYSTEM":"UTC","APOAPSIS":"485.181","BSTAR":"0.00121910000000","TLE_LINE1":"1 45202U 20012AA  22359.91260667  .00033665  00000-0  12191-2 0  9995","ARG_OF_PERICENTER":"131.2708","MEAN_ANOMALY":"228.8753","EPHEMERIS_TYPE":"0"},{"ARG_OF_PERICENTER":"74.4338","TLE_LINE1":"1 45204U 20012AC  22359.93156614  .00001866  00000-0  14412-3 0  9992","APOAPSIS":"548.598","BSTAR":"0.00014412000000","TIME_SYSTEM":"UTC","OBJECT_NAME":"STARLINK-1206","EPHEMERIS_TYPE":"0","MEAN_ANOMALY":"285.6873","EPOCH":"2022-12-25T22:21:27.314496","SITE":"AFETR","DECAY_DATE":null,"PERIOD":"95.592","OBJECT_ID":"2020-012AC","ELEMENT_SET_NO":"999","REV_AT_EPOCH":"15882","TLE_LINE2":"2 45204  53.0549 237.8757 0002012  74.4338 285.6873 15.06402842158821","NORAD_CAT_ID":"45204","OBJECT_TYPE":"PAYLOAD","CENTER_NAME":"EARTH","LAUNCH_DATE":"2020-02-17","SEMIMAJOR_AXIS":"6925.340","FILE":"3722315","RA_OF_ASC_NODE":"237.8757","COUNTRY_CODE":"US","GP_ID":"221448893","MEAN_MOTION_DDOT":"0.0000000000000","ECCENTRICITY":"0.00020120","MEAN_ELEMENT_THEORY":"SGP4","REF_FRAME":"TEME","INCLINATION":"53.0549","RCS_SIZE":"LARGE","PERIAPSIS":"545.811","MEAN_MOTION_DOT":"0.00001866","CLASSIFICATION_TYPE":"U","MEAN_MOTION":"15.06402842"},{"CENTER_NAME":"EARTH","OBJECT_TYPE":"PAYLOAD","FILE":"3722315","LAUNCH_DATE":"2020-02-17","SEMIMAJOR_AXIS":"6925.351","ELEMENT_SET_NO":"999","DECAY_DATE":null,"OBJECT_ID":"2020-012AD","SITE":"AFETR","PERIOD":"95.592","EPOCH":"2022-12-25T18:06:41.657184","NORAD_CAT_ID":"45205","TLE_LINE2":"2 45205  53.0545 238.6557 0001550  80.2274 279.8890 15.06399209158809","REV_AT_EPOCH":"15880","MEAN_ANOMALY":"279.8890","EPHEMERIS_TYPE":"0","ARG_OF_PERICENTER":"80.2274","OBJECT_NAME":"STARLINK-1208","BSTAR":"-0.00005191700000","APOAPSIS":"548.289","TIME_SYSTEM":"UTC","TLE_LINE1":"1 45205U 20012AD  22359.75464881 -.00001055  00000-0 -51917-4 0  9995","MEAN_MOTION":"15.06399209","MEAN_MOTION_DOT":"-0.00001055","PERIAPSIS":"546.143","INCLINATION":"53.0545","RCS_SIZE":"LARGE","CLASSIFICATION_TYPE":"U","MEAN_ELEMENT_THEORY":"SGP4","MEAN_MOTION_DDOT":"0.0000000000000","ECCENTRICITY":"0.00015500","REF_FRAME":"TEME","COUNTRY_CODE":"US","RA_OF_ASC_NODE":"238.6557","GP_ID":"221449643"}];
